PERSEUS-M1              
1 40039U 14033AF  26178.07145687  .00001904  00000+0  17656-3 0  9990
2 40039  97.9648 122.3656 0009804 264.1554  95.8549 14.95665219652117
POLYITAN-1              
1 40042U 14033AJ  26178.03640310  .00020395  00000+0  62898-3 0  9996
2 40042  98.0939 205.2302 0008865 114.7933 245.4230 15.33595602655105
TIGRISAT                
1 40043U 14033AK  26178.15445450  .00001856  00000+0  21812-3 0  9990
2 40043  97.7841 327.9382 0050094  43.2551 317.2581 14.85196626647104
AEROCUBE 6A             
1 40045U 14033AM  26177.97532727  .00004905  00000+0  41232-3 0  9991
2 40045  97.7227 344.8216 0038167 343.9568  16.0443 14.98188064648083
AEROCUBE 6B             
1 40046U 14033AN  26177.70123221  .00004617  00000+0  37409-3 0  9999
2 40046  97.7227 344.3618 0037740 336.0186  23.9278 14.99648140648181
CANX-4                  
1 40055U 14034C   26178.21686772  .00000942  00000+0  12806-3 0  9993
2 40055  98.3111  53.8976 0012394 345.1677  14.9169 14.81281845646018
CANX-5                  
1 40056U 14034D   26178.21518419  .00000937  00000+0  12736-3 0  9992
2 40056  98.3113  53.9400 0012392 345.4382  14.6471 14.81299077636825
UKUBE-1                 
1 40074U 14037F   26177.95219198  .00009082  00000+0  50852-3 0  9998
2 40074  98.4236 182.2506 0003059 116.7089 243.4453 15.13699275650039
BRITE-PL2 (HEWELIUSZ)   
1 40119U 14049B   26178.21460774  .00001744  00000+0  16618-3 0  9998
2 40119  97.9107 290.2923 0015339  77.8705 282.4232 14.94630549642945
AEROCUBE 5C             
1 40965U 15058B   26178.22863079  .00002246  00000+0  20493-3 0  9998
2 40965  64.7663 231.3510 0131256  59.3548 302.0427 14.91492691367151
AEROCUBE 7              
1 40966U 15058C   26178.19624344  .00003437  00000+0  27929-3 0  9999
2 40966  64.7605 213.4639 0120963  57.7302 303.5464 14.95780468367450
FOX-1A (AO-85)          
1 40967U 15058D   26177.80996918  .00002228  00000+0  20611-3 0  9994
2 40967  64.7748 249.0783 0131024  52.8500 308.4494 14.91008064115000
SINOD-D 1               
1 40968U 15058E   26177.43763045  .00003234  00000+0  26324-3 0  9992
2 40968  64.7739 229.9429 0119663  49.4285 311.7170 14.95955298118041
SNAP-3 ALICE            
1 40970U 15058G   26178.16657883  .00158458  00000+0  17042-2 0  9993
2 40970  64.7505  69.3782 0024625   5.4087 354.7321 15.62619873118448
LMRST-SAT               
1 40971U 15058H   26177.90191410  .00001868  00000+0  17639-3 0  9999
2 40971  64.7743 245.1492 0132629  54.8471 306.4983 14.90625518115004
SNAP-3 EDDIE            
1 40972U 15058J   26178.08468205  .00137145  00000+0  14128-2 0  9996
2 40972  64.7419  60.3121 0025289   8.8401 351.3187 15.63765166120574
PROPCUBE 3              
1 40973U 15058K   26178.18132946  .00002884  00000+0  24405-3 0  9999
2 40973  64.7670 221.3092 0124589  55.9789 305.3084 14.94304914116297
BISONSAT                
1 40974U 15058L   26178.05824758  .00016018  00000+0  76320-3 0  9992
2 40974  64.7571 141.7241 0080208  43.2827 317.4561 15.16436488117114
SNAP-3 JIMI             
1 40975U 15058M   26178.17427425  .00006169  00000+0  42268-3 0  9996
2 40975  64.7630 188.1713 0106685  51.3697 309.6911 15.02389164115723
PROPCUBE 1 (FLORA)      
1 40976U 15058N   26177.66430592  .00001953  00000+0  19095-3 0  9997
2 40976  64.7749 265.8631 0131268  57.2315 304.1365 14.89258404117679
SINOD-D 3               
1 40977U 15058P   26177.47831819  .00002825  00000+0  24358-3 0  9991
2 40977  64.7720 246.8052 0119787  54.4457 306.7753 14.94063839116145
HORYU-4                 
1 41340U 16012D   26177.84961613  .01084955  65487-3  12212-2 0  9998
2 41340  30.9825   7.5384 0008816 329.4490  30.5661 16.08207360572369
RAVAN                   
1 41849U 16067B   26177.95295976  .00056284  00000+0  81761-3 0  9991
2 41849  97.9878  68.6594 0002661 357.9218   2.2023 15.55621120529210
CELTEE 1                
1 41850U 16067C   26178.14936117  .00005347  00000+0  25348-3 0  9997
2 41850  98.0666  45.3961 0001497 128.5599 231.5768 15.19775634527399
OPTICUBE 04             
1 41851U 16067D   26178.08755431  .00002481  00000+0  15793-3 0  9998
2 41851  98.0693  30.8876 0017000  84.8822 275.4345 15.09698868526663
AEROCUBE 8D             
1 41852U 16067E   26177.14809934  .00008298  00000+0  34051-3 0  9993
2 41852  98.0682  48.0013 0005022 102.1384 258.0415 15.24514880527433
AEROCUBE 8C             
1 41853U 16067F   26177.89348963  .00008099  00000+0  32979-3 0  9992
2 41853  98.0548  46.0183 0006051  42.3441 317.8261 15.24778663527549
CORVUS BC2              
1 42846U 17042X   26177.95987069  .00002964  00000+0  20502-3 0  9996
2 42846  97.4070 338.9304 0014681  80.4438 279.8448 15.06354829488533
CORVUS BC1              
1 42847U 17042Y   26178.01981993  .00002970  00000+0  20461-3 0  9996
2 42847  97.4096 339.8084 0013077  59.1572 301.0941 15.06517962488576
MAKERSAT 0              
1 43016U 17073D   26178.17177366  .00018824  00000+0  50687-3 0  9995
2 43016  97.4619  60.7702 0104796 236.8226 122.2932 15.32414291467998
